[
    {
        "Altitude(m)": 707139.7675830513,
        "Argument of Periapsis(deg)": 0.0011390121186627068,
        "Eccentricity": 0.0,
        "Inclination(deg)": 45.0,
        "Latitude(deg)": 44.3985417298108,
        "Longitude(deg)": -66.94699372020897,
        "Mean Anomaly(deg)": -260.6648783352519,
        "RAAN(deg)": 289.9989248058542,
        "Satellite Name": "Constellation 1 1282",
        "Satellite Number": 1282,
        "Semi-Major Axis(m)": 7083131.272910544,
        "Time(s)": 19
    },
    {
        "Altitude(m)": 707137.5702141202,
        "Argument of Periapsis(deg)": 0.0011989601249081123,
        "Eccentricity": 0.0,
        "Inclination(deg)": 45.0,
        "Latitude(deg)": 44.38875962132396,
        "Longitude(deg)": -66.86743271309484,
        "Mean Anomaly(deg)": -260.6041771950021,
        "RAAN(deg)": 289.9988682166886,
        "Satellite Name": "Constellation 1 1282",
        "Satellite Number": 1282,
        "Semi-Major Axis(m)": 7083131.272910544,
        "Time(s)": 20
    },
    {
        "Altitude(m)": 707135.3592184456,
        "Argument of Periapsis(deg)": 0.001258908131153518,
        "Eccentricity": 0.0,
        "Inclination(deg)": 45.0,
        "Latitude(deg)": 44.37891625297378,
        "Longitude(deg)": -66.78789964003454,
        "Mean Anomaly(deg)": -260.5434760547521,
        "RAAN(deg)": 289.9988116275231,
        "Satellite Name": "Constellation 1 1282",
        "Satellite Number": 1282,
        "Semi-Major Axis(m)": 7083131.272910544,
        "Time(s)": 21
    },
    {
        "Altitude(m)": 707133.1346090379,
        "Argument of Periapsis(deg)": 0.0013188561373989236,
        "Eccentricity": 0.0,
        "Inclination(deg)": 45.0,
        "Latitude(deg)": 44.36901166592565,
        "Longitude(deg)": -66.7083948243525,
        "Mean Anomaly(deg)": -260.4827749145022,
        "RAAN(deg)": 289.9987550383575,
        "Satellite Name": "Constellation 1 1282",
        "Satellite Number": 1282,
        "Semi-Major Axis(m)": 7083131.272910544,
        "Time(s)": 22
    },
    {
        "Altitude(m)": 707130.8963990015,
        "Argument of Periapsis(deg)": 0.0013788041436443293,
        "Eccentricity": 0.0,
        "Inclination(deg)": 45.0,
        "Latitude(deg)": 44.35904590156608,
        "Longitude(deg)": -66.62891808462473,
        "Mean Anomaly(deg)": -260.42207377425234,
        "RAAN(deg)": 289.998698449192,
        "Satellite Name": "Constellation 1 1282",
        "Satellite Number": 1282,
        "Semi-Major Axis(m)": 7083131.272910544,
        "Time(s)": 23
    },
    {
        "Altitude(m)": 707128.6446015167,
        "Argument of Periapsis(deg)": 0.001438752149889735,
        "Eccentricity": 0.0,
        "Inclination(deg)": 45.0,
        "Latitude(deg)": 44.34901900151105,
        "Longitude(deg)": -66.5494697433375,
        "Mean Anomaly(deg)": -260.3613726340024,
        "RAAN(deg)": 289.99864186002634,
        "Satellite Name": "Constellation 1 1282",
        "Satellite Number": 1282,
        "Semi-Major Axis(m)": 7083131.272910544,
        "Time(s)": 24
    },
    {
        "Altitude(m)": 707126.3792298363,
        "Argument of Periapsis(deg)": 0.0014987001561351404,
        "Eccentricity": 0.0,
        "Inclination(deg)": 45.0,
        "Latitude(deg)": 44.338931007567716,
        "Longitude(deg)": -66.47004995418328,
        "Mean Anomaly(deg)": -260.30067149375253,
        "RAAN(deg)": 289.99858527086076,
        "Satellite Name": "Constellation 1 1282",
        "Satellite Number": 1282,
        "Semi-Major Axis(m)": 7083131.272910544,
        "Time(s)": 25
    },
    {
        "Altitude(m)": 707124.100297309,
        "Argument of Periapsis(deg)": 0.001558648162380546,
        "Eccentricity": 0.0,
        "Inclination(deg)": 45.0,
        "Latitude(deg)": 44.328781961789964,
        "Longitude(deg)": -66.39065887062576,
        "Mean Anomaly(deg)": -260.23997035350266,
        "RAAN(deg)": 289.99852868169523,
        "Satellite Name": "Constellation 1 1282",
        "Satellite Number": 1282,
        "Semi-Major Axis(m)": 7083131.272910544,
        "Time(s)": 26
    },
    {
        "Altitude(m)": 707121.8078173535,
        "Argument of Periapsis(deg)": 0.0016185961686259519,
        "Eccentricity": 0.0,
        "Inclination(deg)": 45.0,
        "Latitude(deg)": 44.31857190644017,
        "Longitude(deg)": -66.31129664558593,
        "Mean Anomaly(deg)": -260.1792692132527,
        "RAAN(deg)": 289.99847209252965,
        "Satellite Name": "Constellation 1 1282",
        "Satellite Number": 1282,
        "Semi-Major Axis(m)": 7083131.272910544,
        "Time(s)": 27
    },
    {
        "Altitude(m)": 707119.5018034749,
        "Argument of Periapsis(deg)": 0.0016785441748713573,
        "Eccentricity": 0.0,
        "Inclination(deg)": 45.0,
        "Latitude(deg)": 44.30830088399782,
        "Longitude(deg)": -66.2319634315182,
        "Mean Anomaly(deg)": -260.11856807300285,
        "RAAN(deg)": 289.99841550336413,
        "Satellite Name": "Constellation 1 1282",
        "Satellite Number": 1282,
        "Semi-Major Axis(m)": 7083131.272910544,
        "Time(s)": 28
    },
    {
        "Altitude(m)": 707117.1822692497,
        "Argument of Periapsis(deg)": 0.001738492181116763,
        "Eccentricity": 0.0,
        "Inclination(deg)": 45.0,
        "Latitude(deg)": 44.29796893715846,
        "Longitude(deg)": -66.15265938040767,
        "Mean Anomaly(deg)": -260.057866932753,
        "RAAN(deg)": 289.9983589141985,
        "Satellite Name": "Constellation 1 1282",
        "Satellite Number": 1282,
        "Semi-Major Axis(m)": 7083131.272910544,
        "Time(s)": 29
    },
    {
        "Altitude(m)": 707114.8492283449,
        "Argument of Periapsis(deg)": 0.0017984401873621684,
        "Eccentricity": 0.0,
        "Inclination(deg)": 45.0,
        "Latitude(deg)": 44.287576108833164,
        "Longitude(deg)": -66.07338481186648,
        "Mean Anomaly(deg)": -259.99716579250304,
        "RAAN(deg)": 289.9983023250329,
        "Satellite Name": "Constellation 1 1282",
        "Satellite Number": 1282,
        "Semi-Major Axis(m)": 7083131.272910544,
        "Time(s)": 30
    },
    {
        "Altitude(m)": 707112.5026945039,
        "Argument of Periapsis(deg)": 0.0018583881936075745,
        "Eccentricity": 0.0,
        "Inclination(deg)": 45.0,
        "Latitude(deg)": 44.27712244214774,
        "Longitude(deg)": -65.99413954074345,
        "Mean Anomaly(deg)": -259.9364646522531,
        "RAAN(deg)": 289.9982457358674,
        "Satellite Name": "Constellation 1 1282",
        "Satellite Number": 1282,
        "Semi-Major Axis(m)": 7083131.272910544,
        "Time(s)": 31
    },
    {
        "Altitude(m)": 707110.1426815473,
        "Argument of Periapsis(deg)": 0.0019183361998529795,
        "Eccentricity": 0.0,
        "Inclination(deg)": 45.0,
        "Latitude(deg)": 44.2666079804416,
        "Longitude(deg)": -65.91492388570401,
        "Mean Anomaly(deg)": -259.87576351200323,
        "RAAN(deg)": 289.9981891467018,
        "Satellite Name": "Constellation 1 1282",
        "Satellite Number": 1282,
        "Semi-Major Axis(m)": 7083131.272910544,
        "Time(s)": 32
    },
    {
        "Altitude(m)": 707107.769203383,
        "Argument of Periapsis(deg)": 0.0019782842060983856,
        "Eccentricity": 0.0,
        "Inclination(deg)": 45.0,
        "Latitude(deg)": 44.25603276726721,
        "Longitude(deg)": -65.83573799684099,
        "Mean Anomaly(deg)": -259.81506237175336,
        "RAAN(deg)": 289.9981325575363,
        "Satellite Name": "Constellation 1 1282",
        "Satellite Number": 1282,
        "Semi-Major Axis(m)": 7083131.272910544,
        "Time(s)": 33
    },
    {
        "Altitude(m)": 707105.382273991,
        "Argument of Periapsis(deg)": 0.0020382322123437906,
        "Eccentricity": 0.0,
        "Inclination(deg)": 45.0,
        "Latitude(deg)": 44.24539684638921,
        "Longitude(deg)": -65.7565820237692,
        "Mean Anomaly(deg)": -259.7543612315035,
        "RAAN(deg)": 289.99807596837064,
        "Satellite Name": "Constellation 1 1282",
        "Satellite Number": 1282,
        "Semi-Major Axis(m)": 7083131.272910544,
        "Time(s)": 34
    },
    {
        "Altitude(m)": 707102.981907436,
        "Argument of Periapsis(deg)": 0.002098180218589197,
        "Eccentricity": 0.0,
        "Inclination(deg)": 45.0,
        "Latitude(deg)": 44.23470026178374,
        "Longitude(deg)": -65.67745611562476,
        "Mean Anomaly(deg)": -259.6936600912535,
        "RAAN(deg)": 289.99801937920506,
        "Satellite Name": "Constellation 1 1282",
        "Satellite Number": 1282,
        "Semi-Major Axis(m)": 7083131.272910544,
        "Time(s)": 35
    },
    {
        "Altitude(m)": 707100.56811786,
        "Argument of Periapsis(deg)": 0.002158128224834602,
        "Eccentricity": 0.0,
        "Inclination(deg)": 45.0,
        "Latitude(deg)": 44.22394305763726,
        "Longitude(deg)": -65.59836042106193,
        "Mean Anomaly(deg)": -259.6329589510036,
        "RAAN(deg)": 289.99796279003954,
        "Satellite Name": "Constellation 1 1282",
        "Satellite Number": 1282,
        "Semi-Major Axis(m)": 7083131.272910544,
        "Time(s)": 36
    },
    {
        "Altitude(m)": 707098.1409194889,
        "Argument of Periapsis(deg)": 0.002218076231080008,
        "Eccentricity": 0.0,
        "Inclination(deg)": 45.0,
        "Latitude(deg)": 44.21312527834599,
        "Longitude(deg)": -65.51929525634947,
        "Mean Anomaly(deg)": -259.57225781075374,
        "RAAN(deg)": 289.99790620087396,
        "Satellite Name": "Constellation 1 1282",
        "Satellite Number": 1282,
        "Semi-Major Axis(m)": 7083131.272910544,
        "Time(s)": 37
    }
]